sat00953
1 00953U 64083A   20046.86343362  .00000002  00000-0 -10016-4 0  9990
2 00953  90.0049 189.4884 0033048  23.4325  87.0469 13.58634050734496
